#dP2021  5 28  6  0  0.00000000      96 __u+U ITR00 EXT  IAC
## 2159 453600.00000000   900.00000000 59362 0.2500000000000
+  116   C06C07C08C09C10C11C12C13C14C16C19C20C21C22C23C24C25
+        C26C27C28C29C30C32C33C34C35C36C37C38C39C40C41C42C43
+        C44C45C46E01E02E03E04E05E07E08E09E11E12E13E14E15E18
+        E19E21E24E25E26E27E30E31E33E36G01G02G03G04G05G06G07
+        G08G09G10G12G13G14G15G16G17G18G19G20G21G22G23G24G25
+        G26G27G28G29G30G31G32J01J02J03R01R02R03R04R05R07R08
+        R09R11R12R13R14R15R16R17R18R19R20R21R22R24  0  0  0
++         8 11 11  9 10  8  9  9  9  9  7  9  7  8 10  9  8
++         9  8  8  9  9 10  8  7  7 13 10 11  9 10  9  8  9
++         7  9  8  8  7  7  8  9  8  7  8 11  9  9  8  8  8
++         7  7  7  8  9  7  7  8  9 10  7  8  6  7  8  7  8
++         8  7  8  8  9  8  7  7  7  7  9  7  7  8  8  7  7
++         7  6  8  7  7  8  7  8 10 10  9  8  9  9 10 10  8
++        13  9  8  8 10 11  7  8  9  9 10  8  8  8  0  0  0
%c M  cc GPS ccc cccc cccc cccc cccc ccccc ccccc ccccc ccccc
%c cc cc ccc ccc cccc cccc cccc cccc ccccc ccccc ccccc ccccc
%f  0.0000000  0.000000000  0.00000000000  0.000000000000000
%f  0.0000000  0.000000000  0.00000000000  0.000000000000000
%i    0    0    0    0      0      0      0      0         0
%i    0    0    0    0      0      0      0      0         0
/* IAC                                ULTRA-RAPID PREDICTION
/* S/V CLOCKS ARE ALIGNED TO GNSS TIME                      
/* G:C1WC2W R:C1PC2P E:C1XC5X C:C2IC6I J:C1CC2S             
/* PCV:IGS14_2148 OL/AL:FES2004  NONE     YN ORB:CoN CLK:CoN
*  2021 05 28 14 45  0.00000000
PC06  -8477.400399  33317.551780  25212.922286    436.790798
PC07 -19169.440320  22361.462449 -30072.651252    133.395864
PC08 -23033.956469  34159.221030   8125.434718   -891.427794
PC09   1769.102787  40536.809818  12576.203010    490.333442
PC10  -1527.867115  26399.219820 -32626.187639    -36.875121
PC11 -14679.036558 -16479.966898 -17047.172861    367.022515
PC12  -6449.812196 -27137.768439  -1080.989975    865.575263
PC13 -12956.371687  35117.592011  19263.373376    278.287246
PC14 -24654.699665 -11787.666160  -5780.358660    855.039943
PC16  -5498.684776  34957.214724  23214.805143   -864.252718
PC19  27064.671639   5679.584009  -3618.761558    851.595981
PC20  19359.578612  15336.127229  12978.594417   -898.218185
PC21    310.790659 -16303.946438 -22625.435378   -938.052084
PC22  19274.249905  -7582.319566 -18677.469228   -953.181246
PC23 -21760.147454  17283.002796   2581.122721   -918.979993
PC24  -7984.262963 -14468.748420  22483.808387   -868.860907
PC25 -21451.114450   3203.909943  17545.894191   -910.033369
PC26   8320.971179 -22314.702393  14565.683056    900.696903
PC27    -36.506907  26773.504838  -7927.218165    539.071387
PC28 -11740.350509  14341.896138 -20862.580787    -69.052226
PC29  16786.738883   5823.433702  21507.422406    398.423295
PC30  12296.461225  23332.930847   9144.100240    468.646807
PC32   -255.461341  16324.472163  22650.682774   -928.984710
PC33 -27125.238818  -5548.125712   3598.647241   -936.783517
PC34 -12619.772855 -22857.210750  -9829.792187   -663.227604
PC35  11479.705104 -14384.773416  20956.199564   -259.713302
PC36  21380.587511  -2395.649804 -17745.553296   -726.881695
PC37  -9614.655147  22194.401258 -13886.336255   -884.359999
PC38 -19256.541193  35567.862772  11643.207013    151.654577
PC39  -1492.601186  36214.572458  21676.674089     31.401023
PC40  -8013.899616  21098.938606 -35596.871965    165.426837
PC41 -19522.373511   7506.858475  18527.157685   -944.894296
PC42 -18836.975244 -15547.726062 -13467.448324   -913.753528
PC43 -16883.072741  -6424.277109 -21275.002554   -750.760229
PC44   -703.262688 -26689.720774   8045.098808    210.864576
PC45  21672.767493 -17421.312950  -2455.420678    452.186764
PC46   8892.188787  13592.379367 -22682.122824    250.252789
PE01 -15401.400328  17116.197971 -18599.266318  -1117.330554
PE02  15290.797219 -17140.064412  18675.794800    222.201184
PE03   4055.431329 -18591.218678 -22671.595827   -435.823356
PE04  13810.654797  24034.008270  10391.270438   -780.483351
PE05  19851.423901  -2128.440281 -21843.078582   -277.405404
PE07 -23901.760907 -15374.298081   8311.800627   -543.107520
PE08 -14253.734870 -23891.986054 -10121.454558   5994.958879
PE09  23947.105043  15170.167743  -8479.282272   5652.638315
PE11  14105.617733   9117.229957  24363.708151   5923.550956
PE12   2509.445950  26171.295062  13616.842178   5188.220992
PE13 -13903.259740  -9495.635935 -24344.642259    417.003936
PE14 -16904.176237 -24034.484022  -2638.803650  -1446.636375
PE15  -2593.573295 -26114.549294 -13683.344865    811.862351
PE18   5910.602939  25366.301199  -9125.180674  -1583.923389
PE19  -6116.089742  17033.789961  23434.013908    288.177138
PE21 -27950.523037   9403.489147  -2556.164836   -667.464956
PE24  24332.258898   4824.129096 -16177.772423   -924.410709
PE25  28007.813290  -9285.916681   2365.183220   -535.202765
PE26 -17105.019436  13408.783601 -20096.577332   1758.496724
PE27 -24825.252605  -4116.387076  15585.088522    -42.120960
PE30  -5988.189339 -15535.710551  24464.570110   2909.060705
PE31   7135.992425  15110.879919 -24425.216066   -481.620998
PE33 -10220.823231  27331.246405  -5008.870454   -469.097870
PE36  17001.746767 -12663.501689  20651.290082   -213.247701
PG01  14056.643125 -21801.068276   4498.732252    675.773615
PG02 -16096.462572   2269.148000 -20366.049985   -607.921994
PG03  16777.800261 -12535.742925 -16349.716535   -176.360742
PG04   7053.778423 -15484.809639 -20371.136434   -197.985564
PG05 -25875.354931   5358.413257   3398.422394    -43.275833
PG06 -10807.086930 -10768.580523 -21677.855623     20.456757
PG07   4794.471037 -24379.322295   9004.417518    163.316691
PG08  13950.948966  -6240.455685  21732.196646    -22.941466
PG09  -3346.031464 -22196.632031 -14239.360989   -348.117870
PG10  14099.895785  12096.189382  19200.448304   -131.038008
PG12 -18992.464132  10581.021980 -15413.543686    -47.252471
PG13 -17115.576233  -3418.468565  19927.949613    137.701433
PG14 -13198.580348 -12986.853154  19045.789331     79.095821
PG15 -13600.625858   8231.303829  20935.987612   -146.284585
PG16  26789.271490    941.052654   -861.663417   -332.351047
PG17 -13104.027979 -23093.349989    939.508562    449.581735
PG18  -2934.387850  23615.078892  11715.203375    349.042779
PG19 -16802.614259 -18848.680039  -8717.983877      5.967814
PG20 -22862.628049  10814.833271   7514.977763    521.732962
PG21  16374.234572 -16481.081435  13113.618533    121.253004
PG22  23488.806433  -9628.036224  -7273.033979   -602.879444
PG23   1480.944384  15055.460538  21810.455818    102.632350
PG24 -15172.965059  19219.150470   9532.102624    103.602946
PG25  -6285.132620  15234.275918 -21038.183344    145.569517
PG26  24081.221809   4780.399434 -10526.698202     91.169942
PG27  18686.069447   5753.734698  17968.548807   -137.762327
PG28 -18311.511198 -11234.926024  16043.567721    563.972832
PG29   1459.874215  22035.699777 -14769.842018   -354.715496
PG30  -5503.953658 -18548.900875  18156.902303   -431.898451
PG31  13261.496209   7762.470066 -21736.265380   -119.858935
PG32  16043.038404  21224.288008  -1505.387891     20.211316
PJ01 -28233.484610  20429.173226  28790.094483   -386.054842
PJ02 -35346.625517  19785.740656  -7236.032595     -0.041262
PJ03 -19572.342794  27314.664844 -20897.139732     -6.571300
PR01  10339.624317  -6829.259465 -22286.500167     80.085739
PR02 -10226.803707 -15047.947430 -17804.018922    480.311336
PR03 -21847.964884 -12880.718545  -2419.370054     36.729492
PR04 -20936.720019  -3635.179800  14140.058471     88.791016
PR05  -8403.369581   7653.450993  22850.039470     72.564775
PR07  22050.593210  12734.340169   1892.602828    -42.406677
PR08  20966.944653   3582.940787 -14032.426871    -59.242165
PR09  -2211.216072  13894.993752 -21276.877009     -4.883333
PR11  21972.944083  -9174.157506  -9119.073517     -7.364386
PR12  17502.546180 -16211.684988   9079.029544    232.601229
PR13   2933.219052 -13930.652848  21149.809161    -55.390481
PR14 -14052.429277  -3109.635825  21076.190886     64.743223
PR15 -22205.994309   9102.805794   8667.098774    103.580541
PR16 -16337.224761  16749.125369 -10027.332553    -15.646193
PR17  -8782.576248 -15545.971343 -18230.967868    427.881604
PR18 -10352.884018   2357.181956 -23187.326077     78.097326
PR19  -7273.952534  18105.618575 -16435.480112   -145.517126
PR20   1048.925754  25400.070337   2377.804759    -49.898646
PR21   8971.031921  14417.897709  19018.892994   -212.323533
PR22  10243.173580  -3316.623489  23096.630479   -114.910685
PR24  -1829.460746 -25262.279317  -3062.047634     44.386726
EOF
